Curium One
1 60242U 24128H   26044.12770643  .00008947  00000-0  53861-3 0  9991
2 60242  61.9792 284.4744 0053307 106.2162 254.4808 15.10270370 87708
ROBUSTA-3A
1 60243U 24128J   26044.02725234  .00008701  00000-0  53368-3 0  9997
2 60243  61.9870 286.6512 0054071 103.6275 257.0848 15.09585334 87663
CatSat
1 60246U 24125J   26044.50335527  .00044965  00000-0  89444-3 0  9998
2 60246  97.2247 256.4406 0028241 279.8509  79.9552 15.46369307 88204
HYPERVIEW-1G (RS66S)
1 61772U 24199AP  26044.58018600  .00054972  00000-0  82203-3 0  9997
2 61772  97.3140 280.0770 0009911  22.0193 338.1484 15.54780122115351
AO-123
1 61781U 24199AY  26044.54235029  .00009742  00000-0  30176-3 0  9996
2 61781  97.3199 274.3542 0015386  37.2757 322.9551 15.33536922114961
JINJUSat 1B
1 63210U 25052A   26044.26372844  .00017841  00000-0  63076-3 0  9994
2 63210  97.4162 301.1268 0004265 137.0965 223.0608 15.29228890 51139
NUSHSAT 1
1 63211U 25052B   26044.20728123  .00020863  00000-0  70341-3 0  9995
2 63211  97.4147 301.2975 0004078 139.1120 221.0428 15.30743341 51141
TEVEL2-4
1 63213U 25052D   26044.50129116  .00019490  00000-0  67538-3 0  9995
2 63213  97.4060 301.0024 0002967 143.7458 216.3984 15.29869622 51176
TEVEL2-5
1 63214U 25052E   26044.24880108  .00019677  00000-0  68429-3 0  9999
2 63214  97.4062 300.7285 0002969 145.0454 215.0982 15.29751662 51131
TEVEL2-6
1 63215U 25052F   26044.25795499  .00019671  00000-0  68501-3 0  9994
2 63215  97.4062 300.7241 0002928 146.3969 213.7457 15.29708289 51133
TEVEL2-1
1 63217U 25052H   26044.51147535  .00018887  00000-0  66563-3 0  9991
2 63217  97.4042 300.7314 0002541 157.5865 202.5487 15.29327071 51162
TEVEL2-3
1 63218U 25052J   26044.50957836  .00018808  00000-0  66222-3 0  9999
2 63218  97.4046 300.7393 0002582 161.0429 199.0907 15.29358237 51160
TEVEL2-2
1 63219U 25052K   26044.25043779  .00018977  00000-0  66894-3 0  9996
2 63219  97.4043 300.4730 0002533 161.6519 198.4813 15.29318197 51128
TEVEL2-9
1 63237U 25052AD  26044.14655226  .00016634  00000-0  61683-3 0  9999
2 63237  97.4100 299.9806 0005222 207.5173 152.5790 15.27672205 51061
TEVEL2-7
1 63238U 25052AE  26044.23305538  .00016793  00000-0  62634-3 0  9991
2 63238  97.4107 300.0261 0005289 207.1990 152.8973 15.27478167 51072
TEVEL2-8
1 63239U 25052AF  26044.23971313  .00017363  00000-0  64793-3 0  9994
2 63239  97.4104 300.0143 0005294 207.8578 152.2379 15.27454971 51075
HYDRA-W
1 63490U 25052BL  26044.24090169  .00133747  00000-0  19836-2 0  9997
2 63490  97.3994 304.4464 0005319 162.3265 197.8175 15.54748373 51385
HADES-ICM (SO-125)
1 63492U 25052BN  26043.96155943  .00095674  00000-0  16561-2 0  9997
2 63492  97.4005 303.6305 0005091 175.3731 184.7569 15.50576577 51300
RSP-03
1 65732U 98067XL  26043.64259226  .01595936  19444-2  14645-2 0  9998
2 65732  51.6117 174.7279 0009438 324.4115  35.6270 16.12100303 22966
BOTAN
1 65942U 98067XP  26044.25019649  .00432754  00000-0  14871-2 0  9996
2 65942  51.6159 178.8870 0007794 316.3906  43.6481 15.87930291 19707
CEVROSAT1
1 66309U 25248S   26044.09972446  .00004237  00000-0  21205-3 0  9991
2 66309  45.4040  66.3552 0001949  49.1397 310.9657 15.18977771 15635
SPIRONE
1 66657U 25274H   26044.35535683  .00003629  00000-0  35470-3 0  9996
2 66657  97.7426 335.5179 0014000  68.9549 291.3167 14.92908685 11740
K-HERO
1 66660U 25274L   26044.32934293  .00002703  00000-0  26245-3 0  9999
2 66660  97.7430 335.5582 0015749  72.4102 287.8836 14.93375201 11749
SNUGLITE-III DURI
1 66661U 25274M   26044.32272794  .00002160  00000-0  21021-3 0  9995
2 66661  97.7429 335.5641 0016325  73.3046 286.9964 14.93475781 11748
SilverSat
1 66909U 98067XV  26044.42548171  .00134299  00000-0  13607-2 0  9995
2 66909  51.6260 188.3804 0002770 293.4989  66.5714 15.64307124 11389
SAKHACUBE-CHOLBON
1 67290U 25313AU  26044.30073818  .00011343  00000-0  49433-3 0  9992
2 67290  97.4059 121.0518 0010913  74.9268 285.3175 15.22299505  7118
QMR-KWT
1 67291U 25313AV  26044.49335689  .00015770  00000-0  67844-3 0  9994
2 67291  97.4058 121.2519 0010545  73.7686 286.4710 15.22666274  7144
IO-86
1 40931U          25360.30710720  .00000000  00000-0  12800-3 0    00
2 40931   6.0006 332.5373 0012733 338.8432   8.1437 14.79075515    01
